STARLINK-35238          
1 65841U 25221U   25299.53943677  .00088574  00000+0  15797-2 0  9999
2 65841  53.1595 352.9308 0000976 236.9946 123.0970 15.49361151  4175
STARLINK-35298          
1 65842U 25221V   25299.53978909  .00102749  00000+0  18300-2 0  9990
2 65842  53.1596 352.9337 0001300  67.1296 292.9850 15.49329133  4170
STARLINK-35301          
1 65843U 25221W   25299.47424775  .00115085  00000+0  20440-2 0  9996
2 65843  53.1597 353.2341 0001008  67.4350 292.6766 15.49350537  4164
STARLINK-35148          
1 65844U 25221X   25299.53910183  .00094858  00000+0  16918-2 0  9996
2 65844  53.1599 352.9281 0001528  57.3982 302.7175 15.49327825  4174
STARLINK-35302          
1 65845U 25221Y   25299.86095304  .00071370  00000+0  12781-2 0  9990
2 65845  53.1593 351.3821 0001260  87.5786 272.5367 15.49341467  4223
STARLINK-35290          
1 65846U 25221Z   25299.86026713  .00139226  00000+0  24621-2 0  9990
2 65846  53.1595 351.3784 0001425  81.1748 278.9423 15.49365098  4224
STARLINK-35262          
1 65847U 25221AA  25299.85957201  .00106285  00000+0  18895-2 0  9990
2 65847  53.1594 351.3715 0000666 248.4580 111.6359 15.49364840  5570
STARLINK-35308          
1 65848U 25221AB  25299.86060581  .00072351  00000+0  12956-2 0  9996
2 65848  53.1592 351.3792 0000377 101.8270 258.2782 15.49338390  5570
STARLINK-35231          
1 65849U 25221AC  25299.85992326  .00069330  00000+0  12421-2 0  9997
2 65849  53.1597 351.3742 0001277  80.8226 279.2927 15.49341844  5570
STARLINK-35252          
1 65850U 25221AD  25299.53669738  .00089887  00000+0  16056-2 0  9999
2 65850  53.1598 352.9127 0001378  71.3180 288.7979 15.49310503  5528
SHIYAN-30 01            
1 65851U 25222A   25299.92498358  .00004175  00000+0  39654-3 0  9999
2 65851  34.9880 221.7865 0005990 212.8555 147.1778 14.92983724  4166
SHIYAN-30 02            
1 65852U 25222B   25299.92429452  .00004126  00000+0  39185-3 0  9994
2 65852  34.9966 221.7923 0007271 214.6287 145.3946 14.92984660  4148
